[{"OBJECT_NAME":"YAOGAN-30 10A","OBJECT_ID":"2021-055A","EPOCH":"2026-03-09T23:48:28.291104","MEAN_MOTION":15.02193247,"ECCENTRICITY":0.0004983,"INCLINATION":34.9965,"RA_OF_ASC_NODE":36.5937,"ARG_OF_PERICENTER":279.793,"MEAN_ANOMALY":80.2215,"EPHEMERIS_TYPE":0,"CLASSIFICATION_TYPE":"U","NORAD_CAT_ID":48860,"ELEMENT_SET_NO":999,"REV_AT_EPOCH":25825,"BSTAR":0.00036861198,"MEAN_MOTION_DOT":4.929e-5,"MEAN_MOTION_DDOT":0},{"OBJECT_NAME":"STARLINK-4310","OBJECT_ID":"2022-077AH","EPOCH":"2026-03-09T23:24:38.242368","MEAN_MOTION":15.05639905,"ECCENTRICITY":0.00017732,"INCLINATION":97.6021,"RA_OF_ASC_NODE":251.4717,"ARG_OF_PERICENTER":113.1748,"MEAN_ANOMALY":246.9665,"EPHEMERIS_TYPE":0,"CLASSIFICATION_TYPE":"U","NORAD_CAT_ID":53074,"ELEMENT_SET_NO":999,"REV_AT_EPOCH":20102,"BSTAR":7.9434803e-5,"MEAN_MOTION_DOT":1.085e-5,"MEAN_MOTION_DDOT":0}]
